satname,norad_id,inclination_deg,eccentricity,mean_motion_rev_per_day,perigee_km,apogee_km,l1,l2
STARLINK-1392,45677,53.1578,0.0001546,15.29385532,476.58809886166364,478.70790758465955,1 45677U 20035W   26085.90946618  .00006883  00000+0  25040-3 0  9991,2 45677  53.1578 344.8739 0001546  92.0968 268.0209 15.29385532321396
STARLINK-1394,45679,53.0484,0.0003615,15.52693403,406.41241972752596,411.31942283961325,1 45679U 20035Y   26085.88210134  .00093971  00000+0  14868-2 0  9996,2 45679  53.0484 313.8960 0003615 200.7955 159.2908 15.52693403321828
STARLINK-1402,45685,53.0462,0.0002169,15.47374529,422.93443999450665,425.88538484511446,1 45685U 20035AE  26085.91282918  .00073841  00000+0  14153-2 0  9997,2 45685  53.0462 301.2150 0002169 262.0834  97.9926 15.47374529322012
STARLINK-1404,45686,53.1618,0.00019,15.34409155,461.3762752774155,463.97578422872175,1 45686U 20035AF  26085.91668981  .00967573  00000+0  26450-1 0  9992,2 45686  53.1618 329.5901 0001900  87.2198 197.9509 15.34409155  5809
STARLINK-1413,45689,53.1613,0.0001724,15.30195338,474.04746904977037,476.4105096428966,1 45689U 20035AJ  26085.87997984  .00002609  00000+0  10021-3 0  9997,2 45689  53.1613 329.7309 0001724 117.3871 242.7306 15.30195338321523
STARLINK-1417,45693,53.0525,0.000156,15.13400989,524.7602743492653,526.9143143290994,1 45693U 20035AN  26085.90423630  .00010519  00000+0  59820-3 0  9997,2 45693  53.0525 336.2269 0001560 290.1050  69.9774 15.13400989321502
STARLINK-1420,45695,53.0511,0.0004176,15.56830634,394.0071884784702,399.6656462766641,1 45695U 20035AQ  26085.89897684  .00108857  00000+0  14765-2 0  9992,2 45695  53.0511 299.1783 0004176 189.2321 170.8614 15.56830634322037
STARLINK-1422,45696,53.1593,0.00012,15.30209583,474.3640576432217,476.00885527277114,1 45696U 20035AR  26085.88734130  .00004314  00000+0  15766-3 0  9994,2 45696  53.1593 329.7020 0001200  89.9708 270.1430 15.30209583321600
STARLINK-1351,45697,53.0507,0.000423,15.55404686,398.10894716262555,403.84407719392857,1 45697U 20035AS  26085.89060954  .00099023  00000+0  14182-2 0  9993,2 45697  53.0507 298.5912 0004230 208.8303 151.2474 15.55404686322041
STARLINK-1398,45699,53.0253,0.0010205,16.2336036,203.72025968043,217.16755331058812,1 45699U 20035AU  26085.82273619  .02333329  11923-4  88737-3 0  9993,2 45699  53.0253 209.9128 0010205 321.2884  38.7423 16.23360360323274
STARLINK-1400,45700,53.0494,0.000747,15.53401612,401.7345794960638,411.87127975092153,1 45700U 20035AV  26085.88140041  .00104226  00000+0  16033-2 0  9992,2 45700  53.0494 300.2125 0007470 160.4917 199.6379 15.53401612322012
STARLINK-1403,45701,53.1588,0.000168,15.2935492,476.5877005539096,478.8912750538111,1 45701U 20035AW  26085.06771976  .00000756  00000+0  38525-4 0  9995,2 45701  53.1588 320.5330 0001680  94.1891 265.9301 15.29354920321655
STARLINK-1407,45703,53.0313,0.0006089,15.63585315,373.19704823489974,381.4238321275525,1 45703U 20035AY  26085.00003471  .00097949  00000+0  10279-2 0  9993,2 45703  53.0313 236.0709 0006089 169.5387  98.9060 15.63585315  5835
STARLINK-1411,45706,53.041,0.0003278,15.65673389,369.0903302801062,373.51526301078684,1 45706U 20035BB  26085.88432375  .00121990  00000+0  11745-2 0  9994,2 45706  53.0410 257.1800 0003278 224.5948 135.4803 15.65673389322615
STARLINK-1423,45710,53.0477,0.0007352,15.55791776,394.86883290109745,404.83518794202155,1 45710U 20035BF  26085.30828889  .00090848  00000+0  12837-2 0  9995,2 45710  53.0477 301.7340 0007352 184.0653 176.0298 15.55791776321931
STARLINK-1433,45711,53.0488,0.0006881,15.58014807,388.7435954505181,398.062588925387,1 45711U 20035BG  26085.88899123  .00118200  00000+0  15306-2 0  9995,2 45711  53.0488 297.7154 0006881 173.6881 186.4218 15.58014807322040
STARLINK-1434,45712,53.0553,0.0004562,15.28135527,478.2568378412825,484.5154667654442,1 45712U 20035BH  26085.31831847  .00032700  00000+0  11836-2 0  9997,2 45712  53.0553 302.9222 0004562 146.9965 213.1319 15.28135527321936
STARLINK-1465,45731,53.0498,0.0005689,15.52521654,405.5050465692275,413.2278680029267,1 45731U 20038B   26085.39486816  .00065195  00000+0  10436-2 0  9990,2 45731  53.0498 142.8417 0005689 353.8534   6.2404 15.52521654318977
STARLINK-1471,45735,53.0462,0.0001603,15.49769768,416.30968611987646,418.4883349648553,1 45735U 20038F   26085.22455977  .00027111  00000+0  48587-3 0  9995,2 45735  53.0462  62.7537 0001603  14.0176 346.0876 15.49769768320095
STARLINK-1480,45741,53.0524,0.0001363,15.54418288,402.91973765536386,404.76850570913484,1 45741U 20038M   26085.91668981  .00088127  00000+0  13115-2 0  9991,2 45741  53.0524 134.5946 0001363  69.9776 122.4593 15.54418288  5907
STARLINK-1500,45744,53.0364,0.0002897,15.35664511,456.9667228848057,460.9281296013696,1 45744U 20038Q   26085.34290007  .00021830  00000+0  62950-3 0  9991,2 45744  53.0364 114.5783 0002897 352.0217   8.0738 15.35664511319378
STARLINK-1504,45746,53.0229,0.0001029,15.54262502,403.5993802036746,404.9952051811106,1 45746U 20038S   26085.34672958  .00033839  00000+0  51434-3 0  9999,2 45746  53.0229  61.7575 0001029  46.8479 313.2616 15.54262502320100
STARLINK-1506,45747,53.0769,0.0002977,15.26558666,484.06555636528174,488.1525284589334,1 45747U 20038T   26085.42218342  .00005682  00000+0  22733-3 0  9997,2 45747  53.0769 124.9426 0002977 329.6923  30.3903 15.26558666319243
STARLINK-1464,45751,53.05,0.0003725,15.45492036,427.39669935621805,432.4687112866832,1 45751U 20038X   26085.51701662  .00059978  00000+0  12302-2 0  9991,2 45751  53.0500 124.5043 0003725 353.4922   6.6035 15.45492036319250
STARLINK-1477,45754,53.048,0.000266,15.152579,518.3607522561906,522.0306652572499,1 45754U 20038AA  26085.52265585  .00010351  00000+0  55923-3 0  9993,2 45754  53.0480 136.3933 0002660  31.0651 329.0499 15.15257900319087
STARLINK-1478,45755,53.0491,0.0004226,15.57901424,390.8698485527693,396.5934319275002,1 45755U 20038AB  26085.51892949  .00080129  00000+0  10497-2 0  9999,2 45755  53.0491 116.3260 0004226 348.6994  11.3921 15.57901424319352
STARLINK-1493,45759,53.0513,0.0004487,15.52947407,405.0808387475736,411.17083101559547,1 45759U 20038AF  26085.90468491  .00089411  00000+0  14028-2 0  9994,2 45759  53.0513 121.6888 0004487  53.0339 307.1081 15.52947407319310
STARLINK-1494,45760,53.0482,0.0006723,15.77359941,333.40886141521696,342.4392771289604,1 45760U 20038AG  26085.91668981  .00177374  00000+0  10347-2 0  9999,2 45760  53.0482  65.7439 0006723  65.6554 151.8601 15.77359941  5973
STARLINK-1502,45764,53.05,0.0005663,15.4955721,414.17177680590885,421.86910472331965,1 45764U 20038AL  26085.53226984  .00060633  00000+0  10797-2 0  9992,2 45764  53.0500 125.4132 0005663  42.4231 317.7213 15.49557210319247
STARLINK-1470,45772,53.0473,0.0003152,15.29269354,475.8341668373114,480.1562725886188,1 45772U 20038AU  26085.41090537  .00040295  00000+0  14047-2 0  9995,2 45772  53.0473  96.6207 0003152  47.7733 312.3533 15.29269354319639
STARLINK-1482,45773,53.1609,0.0001932,15.31303082,470.600011017008,473.2468743720656,1 45773U 20038AV  26085.39656567  .00026330  00000+0  86785-3 0  9997,2 45773  53.1609 113.3624 0001932  65.9315 294.1888 15.31303082319409
STARLINK-1496,45780,53.0505,0.000196,15.50757992,413.1803643320727,415.84308263167804,1 45780U 20038BC  26085.28184361  .00073359  00000+0  12490-2 0  9995,2 45780  53.0505  98.2559 0001960 321.5612  38.5257 15.50757992319584
STARLINK-1513,45786,53.1606,0.0001197,15.30190362,474.4234972137365,476.06419658848426,1 45786U 20038BJ  26085.34577594  .00002645  00000+0  10143-3 0  9996,2 45786  53.1606 113.7861 0001197  79.2326 280.8810 15.30190362319399
STARLINK-1522,46027,53.0645,0.0002485,15.09769885,535.1841741254575,538.6209487875012,1 46027U 20055A   26085.30131058  .00024887  00000+0  15366-2 0  9994,2 46027  53.0645  51.5749 0002485  90.3961 269.7315 15.09769885311390
STARLINK-1523,46028,53.1573,0.0001287,15.29367396,476.8198561518748,478.58454916263963,1 46028U 20055B   26085.30665640  .00006637  00000+0  24204-3 0  9999,2 46028  53.1573  49.5051 0001287  91.0243 269.0904 15.29367396311441
STARLINK-1526,46029,53.1591,0.0001484,15.29356002,476.7188425820432,478.75366576388205,1 46029U 20055C   26085.29582983  .00003902  00000+0  14750-3 0  9993,2 46029  53.1591  49.5193 0001484  94.5730 265.5440 15.29356002311434
STARLINK-1555,46032,53.1617,0.0001361,15.30208634,474.2565522647619,476.12202768089264,1 46032U 20055F   26085.28604821  .00011626  00000+0  40392-3 0  9995,2 46032  53.1617  49.6109 0001361  89.4844 270.6313 15.30208634311433
STARLINK-1556,46033,53.1563,0.0001548,15.29372442,476.6258410050532,478.7484041534035,1 46033U 20055G   26085.32426211  .00005473  00000+0  20176-3 0  9997,2 46033  53.1563  49.3440 0001548  74.8062 285.3110 15.29372442311419
STARLINK-1557,46034,53.1561,0.0001441,15.29365184,476.7208859106231,478.6967406740132,1 46034U 20055H   26085.31802375  .00004774  00000+0  17762-3 0  9996,2 46034  53.1561  49.2730 0001441  88.8076 271.3090 15.29365184311418
STARLINK-1558,46035,53.1564,0.0001368,15.29360121,476.7860625178473,478.6618260722071,1 46035U 20055J   26085.27826050  .00003831  00000+0  14499-3 0  9995,2 46035  53.1564  49.6407 0001368  92.4531 267.6626 15.29360121311433
STARLINK-1560,46036,53.1567,0.0001326,15.29357102,476.8238783941506,478.64205510933334,1 46036U 20055K   26085.18408205  .00000674  00000+0  35675-4 0  9996,2 46036  53.1567  49.9341 0001326  91.6291 268.4862 15.29357102311420
STARLINK-1567,46038,53.0886,0.0001321,15.50523803,414.29827528361875,416.0930737762301,1 46038U 20055M   26085.71750784  .00391836  00000+0  64247-2 0  9997,2 46038  53.0886  46.6265 0001321 118.0689 242.0453 15.50523803311504
STARLINK-1569,46039,53.164,0.0001424,15.30193567,474.25835719517727,476.2101973349436,1 46039U 20055N   26085.28288826  .00002657  00000+0  10182-3 0  9993,2 46039  53.1640  49.6283 0001424 107.5211 252.5946 15.30193567311427
